{
  "type": "FeatureCollection",
  "features": [
    {
      "type": "Feature",
      "properties": {
        "norad_id": 34540,
        "name": "IRIDIUM 33 DEB",
        "group": "iridium-33-debris",
        "lat": 84.67356691222622,
        "lon": 78.24882973968606,
        "alt_km": 624.336127898192,
        "timestamp": "2025-12-24T22:42:22.418441+00:00",
        "meta_object_name": "IRIDIUM 33 DEB",
        "meta_object_id": "1997-051JH",
        "meta_epoch": "2025-12-24T02:49:33.289824",
        "meta_mean_motion": 14.75542343,
        "meta_eccentricity": 0.00181466,
        "meta_inclination": 86.3118,
        "meta_ra_of_asc_node": 302.4047,
        "meta_arg_of_pericenter": 121.3128,
        "meta_mean_anomaly": 255.331,
        "meta_ephemeris_type": 0,
        "meta_classification_type": "U",
        "meta_norad_cat_id": 34540,
        "meta_element_set_no": 999,
        "meta_rev_at_epoch": 89189,
        "meta_bstar": 0.0016242469,
        "meta_mean_motion_dot": 0.00011122,
        "meta_mean_motion_ddot": 0,
        "tle_line1": "1 34540U 97051JH  25358.11774641  .00011122  00000+0  16242-2 0  9995",
        "tle_line2": "2 34540  86.3118 302.4047 0018146 121.3128 255.3310 14.75542343891895"
      },
      "geometry": {
        "type": "Point",
        "coordinates": [
          78.24882973968606,
          84.67356691222622
        ]
      }
    },
    {
      "type": "Feature",
      "properties": {
        "norad_id": 34648,
        "name": "IRIDIUM 33 DEB",
        "group": "iridium-33-debris",
        "lat": -35.62480591374469,
        "lon": -85.57664465290279,
        "alt_km": 800.6263863419599,
        "timestamp": "2025-12-24T22:42:22.418459+00:00",
        "meta_object_name": "IRIDIUM 33 DEB",
        "meta_object_id": "1997-051JZ",
        "meta_epoch": "2025-12-24T00:45:40.219200",
        "meta_mean_motion": 14.11806302,
        "meta_eccentricity": 0.0178897,
        "meta_inclination": 86.3894,
        "meta_ra_of_asc_node": 277.386,
        "meta_arg_of_pericenter": 263.4073,
        "meta_mean_anomaly": 94.6719,
        "meta_ephemeris_type": 0,
        "meta_classification_type": "U",
        "meta_norad_cat_id": 34648,
        "meta_element_set_no": 999,
        "meta_rev_at_epoch": 85120,
        "meta_bstar": 0.0062689256,
        "meta_mean_motion_dot": 0.0001332,
        "meta_mean_motion_ddot": 0,
        "tle_line1": "1 34648U 97051JZ  25358.03171550  .00013320  00000+0  62689-2 0  9993",
        "tle_line2": "2 34648  86.3894 277.3860 0178897 263.4073  94.6719 14.11806302851201"
      },
      "geometry": {
        "type": "Point",
        "coordinates": [
          -85.57664465290279,
          -35.62480591374469
        ]
      }
    },
    {
      "type": "Feature",
      "properties": {
        "norad_id": 34651,
        "name": "IRIDIUM 33 DEB",
        "group": "iridium-33-debris",
        "lat": -73.0321272114349,
        "lon": 123.08297894501946,
        "alt_km": 864.4569473958982,
        "timestamp": "2025-12-24T22:42:22.418476+00:00",
        "meta_object_name": "IRIDIUM 33 DEB",
        "meta_object_id": "1997-051KC",
        "meta_epoch": "2025-12-24T02:50:57.420960",
        "meta_mean_motion": 14.25993338,
        "meta_eccentricity": 0.01421752,
        "meta_inclination": 86.283,
        "meta_ra_of_asc_node": 135.7365,
        "meta_arg_of_pericenter": 167.9905,
        "meta_mean_anomaly": 192.4738,
        "meta_ephemeris_type": 0,
        "meta_classification_type": "U",
        "meta_norad_cat_id": 34651,
        "meta_element_set_no": 999,
        "meta_rev_at_epoch": 86058,
        "meta_bstar": 0.0032089141,
        "meta_mean_motion_dot": 8.536e-05,
        "meta_mean_motion_ddot": 0,
        "tle_line1": "1 34651U 97051KC  25358.11872015  .00008536  00000+0  32089-2 0  9994",
        "tle_line2": "2 34651  86.2830 135.7365 0142175 167.9905 192.4738 14.25993338860583"
      },
      "geometry": {
        "type": "Point",
        "coordinates": [
          123.08297894501946,
          -73.0321272114349
        ]
      }
    },
    {
      "type": "Feature",
      "properties": {
        "norad_id": 34652,
        "name": "IRIDIUM 33 DEB",
        "group": "iridium-33-debris",
        "lat": 55.364088747048335,
        "lon": 149.23762047319042,
        "alt_km": 692.3784268929121,
        "timestamp": "2025-12-24T22:42:22.418492+00:00",
        "meta_object_name": "IRIDIUM 33 DEB",
        "meta_object_id": "1997-051KD",
        "meta_epoch": "2025-12-23T23:25:38.355168",
        "meta_mean_motion": 14.62155088,
        "meta_eccentricity": 0.0025453,
        "meta_inclination": 86.332,
        "meta_ra_of_asc_node": 334.9977,
        "meta_arg_of_pericenter": 256.9837,
        "meta_mean_anomaly": 165.3312,
        "meta_ephemeris_type": 0,
        "meta_classification_type": "U",
        "meta_norad_cat_id": 34652,
        "meta_element_set_no": 999,
        "meta_rev_at_epoch": 88648,
        "meta_bstar": 0.00095749,
        "meta_mean_motion_dot": 4.859e-05,
        "meta_mean_motion_ddot": 0,
        "tle_line1": "1 34652U 97051KD  25357.97613837  .00004859  00000+0  95749-3 0  9990",
        "tle_line2": "2 34652  86.3320 334.9977 0025453 256.9837 165.3312 14.62155088886480"
      },
      "geometry": {
        "type": "Point",
        "coordinates": [
          149.23762047319042,
          55.364088747048335
        ]
      }
    },
    {
      "type": "Feature",
      "properties": {
        "norad_id": 34690,
        "name": "IRIDIUM 33 DEB",
        "group": "iridium-33-debris",
        "lat": 40.45060831102029,
        "lon": 34.78196768255607,
        "alt_km": 701.6227036376249,
        "timestamp": "2025-12-24T22:42:22.418509+00:00",
        "meta_object_name": "IRIDIUM 33 DEB",
        "meta_object_id": "1997-051KM",
        "meta_epoch": "2025-12-23T02:05:55.177152",
        "meta_mean_motion": 14.55131538,
        "meta_eccentricity": 0.00096335,
        "meta_inclination": 86.3772,
        "meta_ra_of_asc_node": 32.4934,
        "meta_arg_of_pericenter": 354.9815,
        "meta_mean_anomaly": 35.335,
        "meta_ephemeris_type": 0,
        "meta_classification_type": "U",
        "meta_norad_cat_id": 34690,
        "meta_element_set_no": 999,
        "meta_rev_at_epoch": 88245,
        "meta_bstar": 0.00039542617,
        "meta_mean_motion_dot": 1.728e-05,
        "meta_mean_motion_ddot": 0,
        "tle_line1": "1 34690U 97051KM  25357.08744418  .00001728  00000+0  39543-3 0  9996",
        "tle_line2": "2 34690  86.3772  32.4934 0009633 354.9815  35.3350 14.55131538882450"
      },
      "geometry": {
        "type": "Point",
        "coordinates": [
          34.78196768255607,
          40.45060831102029
        ]
      }
    },
    {
      "type": "Feature",
      "properties": {
        "norad_id": 34693,
        "name": "IRIDIUM 33 DEB",
        "group": "iridium-33-debris",
        "lat": 72.21164893830547,
        "lon": 106.13059357832965,
        "alt_km": 464.86380325905156,
        "timestamp": "2025-12-24T22:42:22.418526+00:00",
        "meta_object_name": "IRIDIUM 33 DEB",
        "meta_object_id": "1997-051KQ",
        "meta_epoch": "2025-12-23T19:41:55.330656",
        "meta_mean_motion": 15.30604195,
        "meta_eccentricity": 0.00103314,
        "meta_inclination": 86.3059,
        "meta_ra_of_asc_node": 298.3092,
        "meta_arg_of_pericenter": 33.2484,
        "meta_mean_anomaly": 356.9991,
        "meta_ephemeris_type": 0,
        "meta_classification_type": "U",
        "meta_norad_cat_id": 34693,
        "meta_element_set_no": 999,
        "meta_rev_at_epoch": 89084,
        "meta_bstar": 0.0045104698,
        "meta_mean_motion_dot": 0.00135771,
        "meta_mean_motion_ddot": 0,
        "tle_line1": "1 34693U 97051KQ  25357.82077929  .00135771  00000+0  45105-2 0  9993",
        "tle_line2": "2 34693  86.3059 298.3092 0010331  33.2484 356.9991 15.30604195890848"
      },
      "geometry": {
        "type": "Point",
        "coordinates": [
          106.13059357832965,
          72.21164893830547
        ]
      }
    },
    {
      "type": "Feature",
      "properties": {
        "norad_id": 34696,
        "name": "IRIDIUM 33 DEB",
        "group": "iridium-33-debris",
        "lat": -86.18187071746553,
        "lon": -67.22910911433128,
        "alt_km": 724.315801063065,
        "timestamp": "2025-12-24T22:42:22.418542+00:00",
        "meta_object_name": "IRIDIUM 33 DEB",
        "meta_object_id": "1997-051KT",
        "meta_epoch": "2025-12-23T20:04:25.434336",
        "meta_mean_motion": 14.6559156,
        "meta_eccentricity": 0.00738952,
        "meta_inclination": 86.1849,
        "meta_ra_of_asc_node": 22.3578,
        "meta_arg_of_pericenter": 130.1788,
        "meta_mean_anomaly": 48.2218,
        "meta_ephemeris_type": 0,
        "meta_classification_type": "U",
        "meta_norad_cat_id": 34696,
        "meta_element_set_no": 999,
        "meta_rev_at_epoch": 86835,
        "meta_bstar": 0.0041353445,
        "meta_mean_motion_dot": 0.00023449,
        "meta_mean_motion_ddot": 0,
        "tle_line1": "1 34696U 97051KT  25357.83640549  .00023449  00000+0  41353-2 0  9990",
        "tle_line2": "2 34696  86.1849  22.3578 0073895 130.1788  48.2218 14.65591560868350"
      },
      "geometry": {
        "type": "Point",
        "coordinates": [
          -67.22910911433128,
          -86.18187071746553
        ]
      }
    }
  ]
}